TELSTAR 12V             
1 41036U 15068A   26199.76225269 -.00000126  00000+0  00000+0 0  9998
2 41036   0.0142  68.3862 0002232  44.3948  83.1809  1.00271233 38949
ELEKTRO-L 2             
1 41105U 15074A   26199.40558459 -.00000128  00000+0  00000+0 0  9995
2 41105   6.7707  70.1389 0000957 220.4397 137.1429  1.00272087 38810
COSMOS 2513             
1 41121U 15075A   26199.90461339 -.00000145  00000+0  00000+0 0  9998
2 41121   0.0604 102.8504 0002402 343.7066 256.0468  1.00274879 38862
EXPRESS-AMU1            
1 41191U 15082A   26199.83972469  .00000000  00000+0  00000+0 0  9995
2 41191   0.0187  56.5661 0002456  60.4630 158.0329  1.00267376 38583
GAOFEN-4                
1 41194U 15083A   26199.72526807 -.00000341  00000+0  00000+0 0  9997
2 41194   0.4372  83.8070 0004243 125.0645  94.4453  1.00270986 38844
BELINTERSAT-1           
1 41238U 16001A   26199.85191843  .00000100  00000+0  00000+0 0  9991
2 41238   0.0433 242.8223 0001669 192.6546 219.3865  1.00274578 38557
IRNSS-1E                
1 41241U 16003A   26199.60095318 -.00000316  00000+0  00000+0 0  9990
2 41241  33.2996  59.2938 0019245 176.3205  28.9297  1.00276269 38390
EUTELSAT 9B             
1 41310U 16005A   26199.78517021  .00000055  00000+0  00000+0 0  9997
2 41310   0.0457  67.4155 0001175  42.2108 118.5911  1.00272240 38438
SES-9                   
1 41380U 16013A   26199.61918796 -.00000352  00000+0  00000+0 0  9990
2 41380   0.0154 339.3384 0002208 126.7369 161.5518  1.00271756 37755
EUTELSAT 65 WEST A      
1 41382U 16014A   26199.75191721 -.00000283  00000+0  00000+0 0  9992
2 41382   0.0908 297.4659 0002244 174.6241  29.9545  1.00273023 37840
IRNSS-1F                
1 41384U 16015A   26199.27240777  .00000147  00000+0  00000+0 0  9996
2 41384   5.4246  96.0652 0017746 179.8316 150.7039  1.00267878 37971
BEIDOU-2 IGSO-6         
1 41434U 16021A   26177.11016981 -.00000145  00000+0  00000+0 0  9995
2 41434  60.2385  37.9495 0057558 231.0163 137.2672  1.00258926 37578
IRNSS-1G                
1 41469U 16027A   26199.79030808 -.00000343  00000+0  00000+0 0  9991
2 41469   5.2714  96.7435 0005952  12.2944 241.7206  1.00269117 37494
JCSAT-2B                
1 41471U 16028A   26199.55947676 -.00000173  00000+0  00000+0 0  9990
2 41471   0.0194  58.3400 0000912  50.0600 183.3691  1.00271436 37449
THAICOM 8               
1 41552U 16031A   26199.80528565 -.00000128  00000+0  00000+0 0  9994
2 41552   0.0582  34.2808 0003016  40.9043 229.8044  1.00271902 37033
INTELSAT 31 (IS-31)     
1 41581U 16035A   26199.37475181 -.00000159  00000+0  00000+0 0  9991
2 41581   0.0008 144.4513 0001002 146.0799  45.5043  1.00272179 36997
BEIDOU-2 G7             
1 41586U 16037A   26199.71780895 -.00000361  00000+0  00000+0 0  9992
2 41586   1.7966  69.5392 0005938   0.3087 235.6358  1.00271694  7203
ABS-2A (MONGOLSAT-1)    
1 41588U 16038A   26199.77467830 -.00000090  00000+0  00000+0 0  9991
2 41588   0.0099  52.0610 0001587  12.3598 225.7286  1.00270660 37025
EUTELSAT 117 WEST B     
1 41589U 16038B   26199.38527765 -.00000019  00000+0  00000+0 0  9994
2 41589   0.0115 198.1908 0000163 318.2964 161.4185  1.00271609 36972
BRISAT                  
1 41591U 16039A   26199.63920050 -.00000203  00000+0  00000+0 0  9995
2 41591   0.0124  11.0410 0001982 102.7660 203.2338  1.00271797 36923
ECHOSTAR 18             
1 41592U 16039B   26199.53887197 -.00000289  00000+0  00000+0 0  9993
2 41592   0.0185  56.0918 0001595  67.6829 305.1822  1.00271523 36937
MUOS-5                  
1 41622U 16041A   26199.57197676 -.00000153  00000+0  00000+0 0  9990
2 41622   2.1371 302.2926 0199695 260.5439 194.3290  1.00273707 37402
TIANTONG-1 1            
1 41725U 16048A   26199.57111750 -.00000326  00000+0  00000+0 0  9992
2 41725   3.9089  43.6523 0004858  55.9947 143.7060  1.00273609 36588
JCSAT-16                
1 41729U 16050A   26199.72210374 -.00000258  00000+0  00000+0 0  9992
2 41729   0.0160  64.9051 0001015  60.6147 214.8927  1.00270250 36388
USA 270                 
1 41744U 16052A   26195.45234249 -.00000362  00000+0  00000+0 0  9990
2 41744   4.2649  76.8388 0009408 101.7031  42.7683  1.00267800 28409
USA 271                 
1 41745U 16052B   26195.12317037 -.00000300  00000+0  00000+0 0  9994
2 41745   4.2370  76.9135 0011085 165.9764 191.3847  1.00268559 28181
INTELSAT 36 (IS-36)     
1 41747U 16053A   26199.17614029 -.00000033  00000+0  00000+0 0  9990
2 41747   0.0101  31.5291 0002360 315.0581  81.2885  1.00272889 36268
INSAT-3DR               
1 41752U 16054A   26199.84558537 -.00000083  00000+0  00000+0 0  9997
2 41752   0.0791  89.0583 0010427 180.6064  45.3748  1.00271192 36137
GSAT-18                 
1 41793U 16060A   26199.79677869 -.00000083  00000+0  00000+0 0  9993
2 41793   0.0441  91.5311 0005340 348.6261 217.2398  1.00271785 35840
SKY MUSTER 2 (NBN1B)    
1 41794U 16060B   26199.55391909  .00000000  00000+0  00000+0 0  9994
2 41794   0.0180  57.6348 0001738  62.4010 160.5300  1.00269734 35837
HIMAWARI-9              
1 41836U 16064A   26199.72149707 -.00000282  00000+0  00000+0 0  9994
2 41836   0.0335 241.2839 0002092 292.3240 163.3755  1.00271747 35523
SHIJIAN-17 (SJ-17)      
1 41838U 16065A   26199.60880747  .00000033  00000+0  00000+0 0  9993
2 41838   5.8309  72.2237 0002014  43.0542 229.6129  0.99867474 35518
