OBJECT_NAME,OBJECT_ID,EPOCH,MEAN_MOTION,ECCENTRICITY,INCLINATION,RA_OF_ASC_NODE,ARG_OF_PERICENTER,MEAN_ANOMALY,EPHEMERIS_TYPE,CLASSIFICATION_TYPE,NORAD_CAT_ID,ELEMENT_SET_NO,REV_AT_EPOCH,BSTAR,MEAN_MOTION_DOT,MEAN_MOTION_DDOT
TELSTAR 12V,2015-068A,2026-07-18T18:17:38.632416,1.00271233,.0002232,0.0142,68.3862,44.3948,83.1809,0,U,41036,999,3894,0,-.126E-5,0
ELEKTRO-L 2,2015-074A,2026-07-18T09:44:02.508576,1.00272087,.00009578,6.7707,70.1389,220.4397,137.1429,0,U,41105,999,3881,0,-.128E-5,0
COSMOS 2513,2015-075A,2026-07-18T21:42:38.596896,1.00274879,.0002402,0.0604,102.8504,343.7066,256.0468,0,U,41121,999,3886,0,-.145E-5,0
EXPRESS-AMU1,2015-082A,2026-07-18T20:09:12.213216,1.00267376,.0002456,0.0187,56.5661,60.4630,158.0329,0,U,41191,999,3858,0,0,0
GAOFEN-4,2015-083A,2026-07-18T17:24:23.161248,1.00270986,.0004243,0.4372,83.8070,125.0645,94.4453,0,U,41194,999,3884,0,-.341E-5,0
BELINTERSAT-1,2016-001A,2026-07-18T20:26:45.752352,1.00274578,.0001669,0.0433,242.8223,192.6546,219.3865,0,U,41238,999,3855,0,.1E-5,0
IRNSS-1E,2016-003A,2026-07-18T14:25:22.354752,1.00276269,.0019245,33.2996,59.2938,176.3205,28.9297,0,U,41241,999,3839,0,-.316E-5,0
EUTELSAT 9B,2016-005A,2026-07-18T18:50:38.706144,1.00272240,.0001175,0.0457,67.4155,42.2108,118.5911,0,U,41310,999,3843,0,.55E-6,0
SES-9,2016-013A,2026-07-18T14:51:37.839744,1.00271756,.0002208,0.0154,339.3384,126.7369,161.5518,0,U,41380,999,3775,0,-.352E-5,0
EUTELSAT 65 WEST A,2016-014A,2026-07-18T18:02:45.646944,1.00273023,.0002244,0.0908,297.4659,174.6241,29.9545,0,U,41382,999,3784,0,-.283E-5,0
IRNSS-1F,2016-015A,2026-07-18T06:32:16.031328,1.00267878,.00177463,5.4246,96.0652,179.8316,150.7039,0,U,41384,999,3797,0,.147E-5,0
BEIDOU-2 IGSO-6,2016-021A,2026-06-26T02:38:38.671584,1.00258926,.0057558,60.2385,37.9495,231.0163,137.2672,0,U,41434,999,3757,0,-.145E-5,0
IRNSS-1G,2016-027A,2026-07-18T18:58:02.618112,1.00269117,.0005952,5.2714,96.7435,12.2944,241.7206,0,U,41469,999,3749,0,-.343E-5,0
JCSAT-2B,2016-028A,2026-07-18T13:25:38.792064,1.00271436,.0000912,0.0194,58.3400,50.0600,183.3691,0,U,41471,999,3744,0,-.173E-5,0
THAICOM 8,2016-031A,2026-07-18T19:19:36.680160,1.00271902,.0003016,0.0582,34.2808,40.9043,229.8044,0,U,41552,999,3703,0,-.128E-5,0
INTELSAT 31 (IS-31),2016-035A,2026-07-18T08:59:38.556384,1.00272179,.00010022,0.0008,144.4513,146.0799,45.5043,0,U,41581,999,3699,0,-.159E-5,0
BEIDOU-2 G7,2016-037A,2026-07-18T17:13:38.693280,1.00271694,.0005938,1.7966,69.5392,0.3087,235.6358,0,U,41586,999,720,0,-.361E-5,0
ABS-2A (MONGOLSAT-1),2016-038A,2026-07-18T18:35:32.205120,1.00270660,.0001587,0.0099,52.0610,12.3598,225.7286,0,U,41588,999,3702,0,-.9E-6,0
EUTELSAT 117 WEST B,2016-038B,2026-07-18T09:14:47.988960,1.00271609,.00001636,0.0115,198.1908,318.2964,161.4185,0,U,41589,999,3697,0,-.19E-6,0
BRISAT,2016-039A,2026-07-18T15:20:26.923200,1.00271797,.0001982,0.0124,11.0410,102.7660,203.2338,0,U,41591,999,3692,0,-.203E-5,0
ECHOSTAR 18,2016-039B,2026-07-18T12:55:58.538208,1.00271523,.0001595,0.0185,56.0918,67.6829,305.1822,0,U,41592,999,3693,0,-.289E-5,0
MUOS-5,2016-041A,2026-07-18T13:43:38.792064,1.00273707,.0199695,2.1371,302.2926,260.5439,194.3290,0,U,41622,999,3740,0,-.153E-5,0
TIANTONG-1 1,2016-048A,2026-07-18T13:42:24.552000,1.00273609,.0004858,3.9089,43.6523,55.9947,143.7060,0,U,41725,999,3658,0,-.326E-5,0
JCSAT-16,2016-050A,2026-07-18T17:19:49.763136,1.00270250,.0001015,0.0160,64.9051,60.6147,214.8927,0,U,41729,999,3638,0,-.258E-5,0
USA 270,2016-052A,2026-07-14T10:51:22.391136,1.00267800,.0009408,4.2649,76.8388,101.7031,42.7683,0,U,41744,999,2840,0,-.362E-5,0
USA 271,2016-052B,2026-07-14T02:57:21.919968,1.00268559,.0011085,4.2370,76.9135,165.9764,191.3847,0,U,41745,999,2818,0,-.3E-5,0
INTELSAT 36 (IS-36),2016-053A,2026-07-18T04:13:38.521056,1.00272889,.00023607,0.0101,31.5291,315.0581,81.2885,0,U,41747,999,3626,0,-.33E-6,0
INSAT-3DR,2016-054A,2026-07-18T20:17:38.575968,1.00271192,.0010427,0.0791,89.0583,180.6064,45.3748,0,U,41752,999,3613,0,-.83E-6,0
GSAT-18,2016-060A,2026-07-18T19:07:21.678816,1.00271785,.000534,0.0441,91.5311,348.6261,217.2398,0,U,41793,999,3584,0,-.83E-6,0
SKY MUSTER 2 (NBN1B),2016-060B,2026-07-18T13:17:38.609376,1.00269734,.0001738,0.0180,57.6348,62.4010,160.5300,0,U,41794,999,3583,0,0,0
HIMAWARI-9,2016-064A,2026-07-18T17:18:57.346848,1.00271747,.0002092,0.0335,241.2839,292.3240,163.3755,0,U,41836,999,3552,0,-.282E-5,0
SHIJIAN-17 (SJ-17),2016-065A,2026-07-18T14:36:40.965408,0.99867474,.0002014,5.8309,72.2237,43.0542,229.6129,0,U,41838,999,3551,0,.33E-6,0
